[{"OBJECT_NAME":"SHIJIAN-6 02B (SJ-6 02B)","OBJECT_ID":"2006-046B","EPOCH":"2026-03-09T23:09:06.940224","MEAN_MOTION":15.01001333,"ECCENTRICITY":0.00140021,"INCLINATION":97.7065,"RA_OF_ASC_NODE":98.697,"ARG_OF_PERICENTER":42.7506,"MEAN_ANOMALY":317.4805,"EPHEMERIS_TYPE":0,"CLASSIFICATION_TYPE":"U","NORAD_CAT_ID":29506,"ELEMENT_SET_NO":999,"REV_AT_EPOCH":5585,"BSTAR":0.00024683398,"MEAN_MOTION_DOT":3.096e-5,"MEAN_MOTION_DDOT":0},{"OBJECT_NAME":"STARLINK-34356","OBJECT_ID":"2025-123N","EPOCH":"2026-03-09T18:18:33.035040","MEAN_MOTION":14.98322042,"ECCENTRICITY":0.00031271,"INCLINATION":70.0028,"RA_OF_ASC_NODE":194.1022,"ARG_OF_PERICENTER":278.706,"MEAN_ANOMALY":81.3745,"EPHEMERIS_TYPE":0,"CLASSIFICATION_TYPE":"U","NORAD_CAT_ID":64303,"ELEMENT_SET_NO":999,"REV_AT_EPOCH":4163,"BSTAR":0.0013431503,"MEAN_MOTION_DOT":0.00015967,"MEAN_MOTION_DDOT":0}]
